start=new Date('2022-03-10T00:00:00.000Z').valueOf();
sats=[{"EPOCH":"2022-03-09T21:04:43.487040","COUNTRY_CODE":"US","REF_FRAME":"TEME","TIME_SYSTEM":"UTC","MEAN_MOTION_DDOT":"0.0000000000000","REV_AT_EPOCH":"5686","BSTAR":"0.00019039000000","PERIAPSIS":"546.271","CLASSIFICATION_TYPE":"U","ARG_OF_PERICENTER":"70.5116","NORAD_CAT_ID":"47868","SEMIMAJOR_AXIS":"6925.358","MEAN_ANOMALY":"289.6021","EPHEMERIS_TYPE":"0","INCLINATION":"53.0548","APOAPSIS":"548.175","OBJECT_TYPE":"PAYLOAD","LAUNCH_DATE":"2021-03-14","OBJECT_NAME":"STARLINK-2323","DECAY_DATE":null,"PERIOD":"95.592","MEAN_MOTION_DOT":"0.00002555","SITE":"AFETR","TLE_LINE2":"2 47868  53.0548 289.4476 0001375  70.5116 289.6021 15.06396911 56860","MEAN_MOTION":"15.06396911","RCS_SIZE":"LARGE","OBJECT_ID":"2021-021J","CENTER_NAME":"EARTH","GP_ID":"198359458","MEAN_ELEMENT_THEORY":"SGP4","ELEMENT_SET_NO":"999","FILE":"3352875","ECCENTRICITY":"0.00013750","TLE_LINE1":"1 47868U 21021J   22068.87828110  .00002555  00000-0  19039-3 0  9994","RA_OF_ASC_NODE":"289.4476"},{"CLASSIFICATION_TYPE":"U","NORAD_CAT_ID":"47869","ARG_OF_PERICENTER":"58.2332","MEAN_MOTION_DDOT":"0.0000000000000","TIME_SYSTEM":"UTC","EPOCH":"2022-03-09T11:35:27.515904","COUNTRY_CODE":"US","REF_FRAME":"TEME","PERIAPSIS":"546.073","BSTAR":"0.00011872000000","REV_AT_EPOCH":"5562","LAUNCH_DATE":"2021-03-14","APOAPSIS":"548.376","OBJECT_TYPE":"PAYLOAD","DECAY_DATE":null,"OBJECT_NAME":"STARLINK-2324","PERIOD":"95.592","SEMIMAJOR_AXIS":"6925.360","EPHEMERIS_TYPE":"0","INCLINATION":"53.0562","MEAN_ANOMALY":"301.8819","TLE_LINE2":"2 47869  53.0562 341.2437 0001663  58.2332 301.8819 15.06396378 55626","MEAN_MOTION":"15.06396378","MEAN_MOTION_DOT":"0.00001487","SITE":"AFETR","ELEMENT_SET_NO":"999","RA_OF_ASC_NODE":"341.2437","TLE_LINE1":"1 47869U 21021K   22068.48295736  .00001487  00000-0  11872-3 0  9994","ECCENTRICITY":"0.00016630","FILE":"3352818","RCS_SIZE":"LARGE","GP_ID":"198337230","MEAN_ELEMENT_THEORY":"SGP4","CENTER_NAME":"EARTH","OBJECT_ID":"2021-021K"},{"GP_ID":"198360961","MEAN_ELEMENT_THEORY":"SGP4","CENTER_NAME":"EARTH","OBJECT_ID":"2021-021L","RCS_SIZE":"LARGE","RA_OF_ASC_NODE":"4.3587","TLE_LINE1":"1 47870U 21021L   22068.89900990 -.00002439  00000-0 -14491-3 0  9996","ECCENTRICITY":"0.00021320","FILE":"3352875","ELEMENT_SET_NO":"999","SITE":"AFETR","MEAN_MOTION_DOT":"-0.00002439","MEAN_MOTION":"15.06396966","TLE_LINE2":"2 47870  53.0546   4.3587 0002132  54.4632 305.6556 15.06396966 55708","EPHEMERIS_TYPE":"0","INCLINATION":"53.0546","MEAN_ANOMALY":"305.6556","SEMIMAJOR_AXIS":"6925.358","PERIOD":"95.592","DECAY_DATE":null,"OBJECT_NAME":"STARLINK-2326","LAUNCH_DATE":"2021-03-14","APOAPSIS":"548.699","OBJECT_TYPE":"PAYLOAD","PERIAPSIS":"545.746","BSTAR":"-0.00014491000000","REV_AT_EPOCH":"5570","MEAN_MOTION_DDOT":"0.0000000000000","TIME_SYSTEM":"UTC","COUNTRY_CODE":"US","REF_FRAME":"TEME","EPOCH":"2022-03-09T21:34:34.455360","NORAD_CAT_ID":"47870","ARG_OF_PERICENTER":"54.4632","CLASSIFICATION_TYPE":"U"},{"FILE":"3352875","RA_OF_ASC_NODE":"339.1746","TLE_LINE1":"1 47871U 21021M   22068.94370836  .00003792  00000-0  27342-3 0  9993","ECCENTRICITY":"0.00016450","ELEMENT_SET_NO":"999","GP_ID":"198359709","MEAN_ELEMENT_THEORY":"SGP4","CENTER_NAME":"EARTH","OBJECT_ID":"2021-021M","RCS_SIZE":"LARGE","MEAN_MOTION":"15.06390385","TLE_LINE2":"2 47871  53.0560 339.1746 0001645  60.0488 300.0664 15.06390385 56160","SITE":"AFETR","MEAN_MOTION_DOT":"0.00003792","DECAY_DATE":null,"PERIOD":"95.593","OBJECT_NAME":"STARLINK-2327","APOAPSIS":"548.382","OBJECT_TYPE":"PAYLOAD","LAUNCH_DATE":"2021-03-14","EPHEMERIS_TYPE":"0","INCLINATION":"53.0560","MEAN_ANOMALY":"300.0664","SEMIMAJOR_AXIS":"6925.378","ARG_OF_PERICENTER":"60.0488","NORAD_CAT_ID":"47871","CLASSIFICATION_TYPE":"U","BSTAR":"0.00027342000000","REV_AT_EPOCH":"5616","PERIAPSIS":"546.104","COUNTRY_CODE":"US","REF_FRAME":"TEME","EPOCH":"2022-03-09T22:38:56.402304","MEAN_MOTION_DDOT":"0.0000000000000","TIME_SYSTEM":"UTC"},{"NORAD_CAT_ID":"47872","ARG_OF_PERICENTER":"25.5724","CLASSIFICATION_TYPE":"U","PERIAPSIS":"486.600","REV_AT_EPOCH":"5678","BSTAR":"0.00674500000000","TIME_SYSTEM":"UTC","MEAN_MOTION_DDOT":"0.0000000000000","COUNTRY_CODE":"US","EPOCH":"2022-03-09T21:10:33.155616","REF_FRAME":"TEME","PERIOD":"94.368","DECAY_DATE":null,"OBJECT_NAME":"STARLINK-2328","LAUNCH_DATE":"2021-03-14","OBJECT_TYPE":"PAYLOAD","APOAPSIS":"489.362","MEAN_ANOMALY":"334.5373","INCLINATION":"53.0649","EPHEMERIS_TYPE":"0","SEMIMAJOR_AXIS":"6866.116","MEAN_MOTION":"15.25935013","TLE_LINE2":"2 47872  53.0649 295.3467 0002011  25.5724 334.5373 15.25935013 56780","SITE":"AFETR","MEAN_MOTION_DOT":"0.00179366","ECCENTRICITY":"0.00020110","TLE_LINE1":"1 47872U 21021N   22068.88232819  .00179366  00000-0  67450-2 0  9999","RA_OF_ASC_NODE":"295.3467","FILE":"3352875","ELEMENT_SET_NO":"999","OBJECT_ID":"2021-021N","CENTER_NAME":"EARTH","GP_ID":"198359959","MEAN_ELEMENT_THEORY":"SGP4","RCS_SIZE":"LARGE"},{"RCS_SIZE":"LARGE","GP_ID":"198360210","CENTER_NAME":"EARTH","MEAN_ELEMENT_THEORY":"SGP4","OBJECT_ID":"2021-021P","ELEMENT_SET_NO":"999","FILE":"3352875","RA_OF_ASC_NODE":"339.2430","TLE_LINE1":"1 47873U 21021P   22068.92526570  .00003676  00000-0  26558-3 0  9990","ECCENTRICITY":"0.00018330","MEAN_MOTION_DOT":"0.00003676","SITE":"AFETR","TLE_LINE2":"2 47873  53.0584 339.2430 0001833  57.5695 302.5471 15.06395538 56156","MEAN_MOTION":"15.06395538","SEMIMAJOR_AXIS":"6925.362","INCLINATION":"53.0584","EPHEMERIS_TYPE":"0","MEAN_ANOMALY":"302.5471","APOAPSIS":"548.497","OBJECT_TYPE":"PAYLOAD","LAUNCH_DATE":"2021-03-14","DECAY_DATE":null,"PERIOD":"95.592","OBJECT_NAME":"STARLINK-2329","EPOCH":"2022-03-09T22:12:22.956480","COUNTRY_CODE":"US","REF_FRAME":"TEME","MEAN_MOTION_DDOT":"0.0000000000000","TIME_SYSTEM":"UTC","BSTAR":"0.00026558000000","REV_AT_EPOCH":"5615","PERIAPSIS":"545.958","CLASSIFICATION_TYPE":"U","ARG_OF_PERICENTER":"57.5695","NORAD_CAT_ID":"47873"},{"MEAN_MOTION":"15.06391651","TLE_LINE2":"2 47874  53.0534 294.1940 0001716  76.4465 283.6715 15.06391651 56794","SITE":"AFETR","MEAN_MOTION_DOT":"0.00000175","FILE":"3352875","RA_OF_ASC_NODE":"294.1940","TLE_LINE1":"1 47874U 21021Q   22068.93400651  .00000175  00000-0  30670-4 0  9995","ECCENTRICITY":"0.00017160","ELEMENT_SET_NO":"999","GP_ID":"198360461","CENTER_NAME":"EARTH","MEAN_ELEMENT_THEORY":"SGP4","OBJECT_ID":"2021-021Q","RCS_SIZE":"LARGE","ARG_OF_PERICENTER":"76.4465","NORAD_CAT_ID":"47874","CLASSIFICATION_TYPE":"U","BSTAR":"0.00003067000000","REV_AT_EPOCH":"5679","PERIAPSIS":"546.051","COUNTRY_CODE":"US","REF_FRAME":"TEME","EPOCH":"2022-03-09T22:24:58.162464","MEAN_MOTION_DDOT":"0.0000000000000","TIME_SYSTEM":"UTC","DECAY_DATE":null,"OBJECT_NAME":"STARLINK-2330","PERIOD":"95.593","OBJECT_TYPE":"PAYLOAD","APOAPSIS":"548.428","LAUNCH_DATE":"2021-03-14","INCLINATION":"53.0534","EPHEMERIS_TYPE":"0","MEAN_ANOMALY":"283.6715","SEMIMAJOR_AXIS":"6925.374"},{"RCS_SIZE":"LARGE","OBJECT_ID":"2021-021R","GP_ID":"198359209","MEAN_ELEMENT_THEORY":"SGP4","CENTER_NAME":"EARTH","ELEMENT_SET_NO":"999","FILE":"3352875","TLE_LINE1":"1 47875U 21021R   22068.91698800  .00001949  00000-0  14975-3 0  9998","ECCENTRICITY":"0.00016600","RA_OF_ASC_NODE":"349.2898","MEAN_MOTION_DOT":"0.00001949","SITE":"AFETR","TLE_LINE2":"2 47875  53.0564 349.2898 0001660  65.6179 294.4984 15.06386238 56076","MEAN_MOTION":"15.06386238","SEMIMAJOR_AXIS":"6925.391","MEAN_ANOMALY":"294.4984","INCLINATION":"53.0564","EPHEMERIS_TYPE":"0","OBJECT_TYPE":"PAYLOAD","APOAPSIS":"548.405","LAUNCH_DATE":"2021-03-14","PERIOD":"95.593","DECAY_DATE":null,"OBJECT_NAME":"STARLINK-2331","EPOCH":"2022-03-09T22:00:27.763200","COUNTRY_CODE":"US","REF_FRAME":"TEME","TIME_SYSTEM":"UTC","MEAN_MOTION_DDOT":"0.0000000000000","REV_AT_EPOCH":"5607","BSTAR":"0.00014975000000","PERIAPSIS":"546.106","CLASSIFICATION_TYPE":"U","ARG_OF_PERICENTER":"65.6179","NORAD_CAT_ID":"47875"},{"SITE":"AFETR","MEAN_MOTION_DOT":"0.00001410","MEAN_MOTION":"15.06389634","TLE_LINE2":"2 47876  53.0562 351.1302 0001874  51.7104 308.4053 15.06389634 55961","CENTER_NAME":"EARTH","GP_ID":"198324889","MEAN_ELEMENT_THEORY":"SGP4","OBJECT_ID":"2021-021S","RCS_SIZE":"LARGE","FILE":"3352425","RA_OF_ASC_NODE":"351.1302","ECCENTRICITY":"0.00018740","TLE_LINE1":"1 47876U 21021S   22068.50784693  .00001410  00000-0  11360-3 0  9998","ELEMENT_SET_NO":"999","BSTAR":"0.00011360000000","REV_AT_EPOCH":"5596","PERIAPSIS":"545.948","COUNTRY_CODE":"US","REF_FRAME":"TEME","EPOCH":"2022-03-09T12:11:17.974752","MEAN_MOTION_DDOT":"0.0000000000000","TIME_SYSTEM":"UTC","ARG_OF_PERICENTER":"51.7104","NORAD_CAT_ID":"47876","CLASSIFICATION_TYPE":"U","INCLINATION":"53.0562","EPHEMERIS_TYPE":"0","MEAN_ANOMALY":"308.4053","SEMIMAJOR_AXIS":"6925.380","OBJECT_NAME":"STARLINK-2332","DECAY_DATE":null,"PERIOD":"95.593","OBJECT_TYPE":"PAYLOAD","APOAPSIS":"548.543","LAUNCH_DATE":"2021-03-14"},{"OBJECT_ID":"2021-021T","GP_ID":"198360711","MEAN_ELEMENT_THEORY":"SGP4","CENTER_NAME":"EARTH","RCS_SIZE":"LARGE","FILE":"3352875","TLE_LINE1":"1 47877U 21021T   22068.92067841  .00008271  00000-0  57359-3 0  9994","ECCENTRICITY":"0.00019550","RA_OF_ASC_NODE":"349.2722","ELEMENT_SET_NO":"999","SITE":"AFETR","MEAN_MOTION_DOT":"0.00008271","MEAN_MOTION":"15.06394444","TLE_LINE2":"2 47877  53.0552 349.2722 0001955  55.5132 304.6042 15.06394444 56016","MEAN_ANOMALY":"304.6042","EPHEMERIS_TYPE":"0","INCLINATION":"53.0552","SEMIMAJOR_AXIS":"6925.366","DECAY_DATE":null,"PERIOD":"95.592","OBJECT_NAME":"STARLINK-2333","APOAPSIS":"548.584","OBJECT_TYPE":"PAYLOAD","LAUNCH_DATE":"2021-03-14","REV_AT_EPOCH":"5601","BSTAR":"0.00057359000000","PERIAPSIS":"545.877","COUNTRY_CODE":"US","REF_FRAME":"TEME","EPOCH":"2022-03-09T22:05:46.614624","TIME_SYSTEM":"UTC","MEAN_MOTION_DDOT":"0.0000000000000","ARG_OF_PERICENTER":"55.5132","NORAD_CAT_ID":"47877","CLASSIFICATION_TYPE":"U"}];
